[{"OBJECT_NAME":"STARLINK-31704","OBJECT_ID":"2024-076Y","EPOCH":"2026-03-09T22:00:01.999584","MEAN_MOTION":15.30892355,"ECCENTRICITY":0.00079744,"INCLINATION":42.9978,"RA_OF_ASC_NODE":323.2923,"ARG_OF_PERICENTER":240.5046,"MEAN_ANOMALY":200.4144,"EPHEMERIS_TYPE":0,"CLASSIFICATION_TYPE":"U","NORAD_CAT_ID":59586,"ELEMENT_SET_NO":999,"REV_AT_EPOCH":581,"BSTAR":0.0024766131,"MEAN_MOTION_DOT":0.00076042,"MEAN_MOTION_DDOT":0},{"OBJECT_NAME":"STARLINK-32134","OBJECT_ID":"2024-132Y","EPOCH":"2026-03-09T09:10:53.240160","MEAN_MOTION":15.30194938,"ECCENTRICITY":0.00012426,"INCLINATION":53.1611,"RA_OF_ASC_NODE":53.8358,"ARG_OF_PERICENTER":81.5362,"MEAN_ANOMALY":278.578,"EPHEMERIS_TYPE":0,"CLASSIFICATION_TYPE":"U","NORAD_CAT_ID":60300,"ELEMENT_SET_NO":999,"REV_AT_EPOCH":9151,"BSTAR":2.5126235e-5,"MEAN_MOTION_DOT":3.85e-6,"MEAN_MOTION_DDOT":0}]
